IRIDIUM 112             
1 41925U 17003J   24311.61285068  .00000406  00000+0  13784-3 0  9994
2 41925  86.3960 333.8587 0002154 103.8102 256.3334 14.34215487409052
IRIDIUM 111             
1 41926U 17003K   24311.60016051  .00001004  00000+0  35136-3 0  9998
2 41926  86.3956 333.9222 0002211  90.1343 270.0106 14.34213407409032
IRIDIUM 113             
1 42803U 17039A   24311.85920218  .00000976  00000+0  34131-3 0  9999
2 42803  86.4030 207.5717 0002088  93.8584 266.2851 14.34214908387008
IRIDIUM 123             
1 42804U 17039B   24311.83089517  .00000236  00000+0  77060-4 0  9994
2 42804  86.3986 239.0362 0002683  83.6663 276.4839 14.34217199385765
IRIDIUM 120             
1 42805U 17039C   24311.78311468  .00001462  00000+0  51501-3 0  9995
2 42805  86.4018 207.4626 0002099  75.3481 284.7948 14.34221164386987
IRIDIUM 115             
1 42806U 17039D   24311.95568797  .00001833  00000+0  53864-3 0  9990
2 42806  86.4553 207.4362 0002393  81.6898 278.4574 14.43290849389566
IRIDIUM 118             
1 42807U 17039E   24311.86262597  .00000526  00000+0  18088-3 0  9997
2 42807  86.3986 239.0239 0002064  84.7519 275.3912 14.34213047385764
IRIDIUM 117             
1 42808U 17039F   24311.88165025  .00000743  00000+0  25811-3 0  9991
2 42808  86.3985 238.9791 0002381  82.5422 277.6045 14.34220929385798
